{"type": "FeatureCollection", "features": [ {"type": "Feature", "properties": {"norad_id": 66390, "name": "STARLINK-35665", "group": "last-30-days", "lat": 18.860768461399527, "lon": 85.64884189965997, "alt_km": 415.95185408568886, "timestamp": "2025-12-09T05:43:19.507810+00:00", "meta": {"OBJECT_NAME": "STARLINK-35665", "OBJECT_ID": "2025-257L", "EPOCH": "2025-12-08T19:45:46.533600", "MEAN_MOTION": 15.49358923, "ECCENTRICITY": 0.0002898, "INCLINATION": 53.1601, "RA_OF_ASC_NODE": 282.4733, "ARG_OF_PERICENTER": 82.5198, "MEAN_ANOMALY": 277.614, "EPHEMERIS_TYPE": 0, "CLASSIFICATION_TYPE": "U", "NORAD_CAT_ID": 66390, "ELEMENT_SET_NO": 999, "REV_AT_EPOCH": 587, "BSTAR": 0.0014953, "MEAN_MOTION_DOT": 0.00083762, "MEAN_MOTION_DDOT": 0}, "tle": {"line1": "1 66390U 25257L   25342.82345525  .00083762  00000+0  14953-2 0  9994", "line2": "2 66390  53.1601 282.4733 0002898  82.5198 277.6140 15.49358923  5877"}}, "geometry": {"type": "Point", "coordinates": [85.64884189965997, 18.860768461399527]}}, {"type": "Feature", "properties": {"norad_id": 66391, "name": "STARLINK-35656", "group": "last-30-days", "lat": -35.76854965767905, "lon": -111.80825473131863, "alt_km": 451.88367522103636, "timestamp": "2025-12-09T05:43:19.507822+00:00", "meta": {"OBJECT_NAME": "STARLINK-35656", "OBJECT_ID": "2025-257M", "EPOCH": "2025-12-08T20:34:41.049120", "MEAN_MOTION": 15.3966217, "ECCENTRICITY": 0.0001382, "INCLINATION": 53.1594, "RA_OF_ASC_NODE": 282.6781, "ARG_OF_PERICENTER": 96.5378, "MEAN_ANOMALY": 263.5784, "EPHEMERIS_TYPE": 0, "CLASSIFICATION_TYPE": "U", "NORAD_CAT_ID": 66391, "ELEMENT_SET_NO": 999, "REV_AT_EPOCH": 587, "BSTAR": 0.0018106, "MEAN_MOTION_DOT": 0.0007282, "MEAN_MOTION_DDOT": 0}, "tle": {"line1": "1 66391U 25257M   25342.85741955  .00072820  00000+0  18106-2 0  9992", "line2": "2 66391  53.1594 282.6781 0001382  96.5378 263.5784 15.39662170  5875"}}, "geometry": {"type": "Point", "coordinates": [-111.80825473131863, -35.76854965767905]}}, {"type": "Feature", "properties": {"norad_id": 66392, "name": "STARLINK-35671", "group": "last-30-days", "lat": -49.08552975237281, "lon": -138.9474276743421, "alt_km": 452.57583524615166, "timestamp": "2025-12-09T05:43:19.507833+00:00", "meta": {"OBJECT_NAME": "STARLINK-35671", "OBJECT_ID": "2025-257N", "EPOCH": "2025-12-08T20:40:53.966208", "MEAN_MOTION": 15.39671039, "ECCENTRICITY": 0.0001437, "INCLINATION": 53.1596, "RA_OF_ASC_NODE": 282.7186, "ARG_OF_PERICENTER": 89.7379, "MEAN_ANOMALY": 270.3791, "EPHEMERIS_TYPE": 0, "CLASSIFICATION_TYPE": "U", "NORAD_CAT_ID": 66392, "ELEMENT_SET_NO": 999, "REV_AT_EPOCH": 577, "BSTAR": 0.0016626, "MEAN_MOTION_DOT": 0.00066799, "MEAN_MOTION_DDOT": 0}, "tle": {"line1": "1 66392U 25257N   25342.86173572  .00066799  00000+0  16626-2 0  9991", "line2": "2 66392  53.1596 282.7186 0001437  89.7379 270.3791 15.39671039  5771"}}, "geometry": {"type": "Point", "coordinates": [-138.9474276743421, -49.08552975237281]}}, {"type": "Feature", "properties": {"norad_id": 66393, "name": "STARLINK-35652", "group": "last-30-days", "lat": -16.914900071194815, "lon": -92.33752612762362, "alt_km": 450.3762059807941, "timestamp": "2025-12-09T05:43:19.507858+00:00", "meta": {"OBJECT_NAME": "STARLINK-35652", "OBJECT_ID": "2025-257P", "EPOCH": "2025-12-08T20:00:01.999008", "MEAN_MOTION": 15.3962651, "ECCENTRICITY": 0.0001196, "INCLINATION": 53.1588, "RA_OF_ASC_NODE": 282.7513, "ARG_OF_PERICENTER": 89.1579, "MEAN_ANOMALY": 163.2457, "EPHEMERIS_TYPE": 0, "CLASSIFICATION_TYPE": "U", "NORAD_CAT_ID": 66393, "ELEMENT_SET_NO": 999, "REV_AT_EPOCH": 586, "BSTAR": -0.00058935, "MEAN_MOTION_DOT": -0.00023904, "MEAN_MOTION_DDOT": 0}, "tle": {"line1": "1 66393U 25257P   25342.83335647 -.00023904  00000+0 -58935-3 0  9995", "line2": "2 66393  53.1588 282.7513 0001196  89.1579 163.2457 15.39626510  5868"}}, "geometry": {"type": "Point", "coordinates": [-92.33752612762362, -16.914900071194815]}}, {"type": "Feature", "properties": {"norad_id": 66394, "name": "STARLINK-35672", "group": "last-30-days", "lat": -15.475463707590102, "lon": -91.14299795885151, "alt_km": 450.3024889212684, "timestamp": "2025-12-09T05:43:19.507872+00:00", "meta": {"OBJECT_NAME": "STARLINK-35672", "OBJECT_ID": "2025-257Q", "EPOCH": "2025-12-08T20:00:01.999008", "MEAN_MOTION": 15.39609468, "ECCENTRICITY": 0.0001426, "INCLINATION": 53.159, "RA_OF_ASC_NODE": 282.7466, "ARG_OF_PERICENTER": 95.2895, "MEAN_ANOMALY": 158.9572, "EPHEMERIS_TYPE": 0, "CLASSIFICATION_TYPE": "U", "NORAD_CAT_ID": 66394, "ELEMENT_SET_NO": 999, "REV_AT_EPOCH": 586, "BSTAR": 0.00059852, "MEAN_MOTION_DOT": 0.00023606, "MEAN_MOTION_DDOT": 0}, "tle": {"line1": "1 66394U 25257Q   25342.83335647  .00023606  00000+0  59852-3 0  9992", "line2": "2 66394  53.1590 282.7466 0001426  95.2895 158.9572 15.39609468  5866"}}, "geometry": {"type": "Point", "coordinates": [-91.14299795885151, -15.475463707590102]}}, {"type": "Feature", "properties": {"norad_id": 66395, "name": "STARLINK-35681", "group": "last-30-days", "lat": 3.542001691589172, "lon": -76.54940122976294, "alt_km": 447.87913174039113, "timestamp": "2025-12-09T05:43:19.507883+00:00", "meta": {"OBJECT_NAME": "STARLINK-35681", "OBJECT_ID": "2025-257R", "EPOCH": "2025-12-08T20:00:01.999008", "MEAN_MOTION": 15.39624704, "ECCENTRICITY": 0.0001059, "INCLINATION": 53.1595, "RA_OF_ASC_NODE": 282.6999, "ARG_OF_PERICENTER": 107.0502, "MEAN_ANOMALY": 171.1121, "EPHEMERIS_TYPE": 0, "CLASSIFICATION_TYPE": "U", "NORAD_CAT_ID": 66395, "ELEMENT_SET_NO": 999, "REV_AT_EPOCH": 570, "BSTAR": -0.00064197, "MEAN_MOTION_DOT": -0.00025993, "MEAN_MOTION_DDOT": 0}, "tle": {"line1": "1 66395U 25257R   25342.83335647 -.00025993  00000+0 -64197-3 0  9994", "line2": "2 66395  53.1595 282.6999 0001059 107.0502 171.1121 15.39624704  5701"}}, "geometry": {"type": "Point", "coordinates": [-76.54940122976294, 3.542001691589172]}}, {"type": "Feature", "properties": {"norad_id": 66396, "name": "STARLINK-35669", "group": "last-30-days", "lat": 5.010467912040448, "lon": -75.44517861127713, "alt_km": 447.5958776446914, "timestamp": "2025-12-09T05:43:19.507894+00:00", "meta": {"OBJECT_NAME": "STARLINK-35669", "OBJECT_ID": "2025-257S", "EPOCH": "2025-12-08T20:00:01.999008", "MEAN_MOTION": 15.39631193, "ECCENTRICITY": 0.0001112, "INCLINATION": 53.1595, "RA_OF_ASC_NODE": 282.6952, "ARG_OF_PERICENTER": 102.16, "MEAN_ANOMALY": 177.836, "EPHEMERIS_TYPE": 0, "CLASSIFICATION_TYPE": "U", "NORAD_CAT_ID": 66396, "ELEMENT_SET_NO": 999, "REV_AT_EPOCH": 586, "BSTAR": -0.0008375, "MEAN_MOTION_DOT": -0.00033762, "MEAN_MOTION_DDOT": 0}, "tle": {"line1": "1 66396U 25257S   25342.83335647 -.00033762  00000+0 -83750-3 0  9994", "line2": "2 66396  53.1595 282.6952 0001112 102.1600 177.8360 15.39631193  5861"}}, "geometry": {"type": "Point", "coordinates": [-75.44517861127713, 5.010467912040448]}}, {"type": "Feature", "properties": {"norad_id": 66397, "name": "STARLINK-35510", "group": "last-30-days", "lat": 23.720744726399133, "lon": -60.027147134629274, "alt_km": 444.13894030950905, "timestamp": "2025-12-09T05:43:19.507905+00:00", "meta": {"OBJECT_NAME": "STARLINK-35510", "OBJECT_ID": "2025-257T", "EPOCH": "2025-12-08T20:00:01.999008", "MEAN_MOTION": 15.39562768, "ECCENTRICITY": 0.0001412, "INCLINATION": 53.16, "RA_OF_ASC_NODE": 282.648, "ARG_OF_PERICENTER": 89.9163, "MEAN_ANOMALY": 214.0204, "EPHEMERIS_TYPE": 0, "CLASSIFICATION_TYPE": "U", "NORAD_CAT_ID": 66397, "ELEMENT_SET_NO": 999, "REV_AT_EPOCH": 586, "BSTAR": 0.0017972, "MEAN_MOTION_DOT": 0.00072031, "MEAN_MOTION_DDOT": 0}, "tle": {"line1": "1 66397U 25257T   25342.83335647  .00072031  00000+0  17972-2 0  9997", "line2": "2 66397  53.1600 282.6480 0001412  89.9163 214.0204 15.39562768  5866"}}, "geometry": {"type": "Point", "coordinates": [-60.027147134629274, 23.720744726399133]}}, {"type": "Feature", "properties": {"norad_id": 66398, "name": "STARLINK-35642", "group": "last-30-days", "lat": 41.52784775100295, "lon": -37.7110703598063, "alt_km": 440.89939085781316, "timestamp": "2025-12-09T05:43:19.507916+00:00", "meta": {"OBJECT_NAME": "STARLINK-35642", "OBJECT_ID": "2025-257U", "EPOCH": "2025-12-08T20:00:01.999008", "MEAN_MOTION": 15.39639584, "ECCENTRICITY": 0.0001539, "INCLINATION": 53.1599, "RA_OF_ASC_NODE": 282.5967, "ARG_OF_PERICENTER": 91.6792, "MEAN_ANOMALY": 237.9353, "EPHEMERIS_TYPE": 0, "CLASSIFICATION_TYPE": "U", "NORAD_CAT_ID": 66398, "ELEMENT_SET_NO": 999, "REV_AT_EPOCH": 586, "BSTAR": -0.00038094, "MEAN_MOTION_DOT": -0.00015616, "MEAN_MOTION_DDOT": 0}, "tle": {"line1": "1 66398U 25257U   25342.83335647 -.00015616  00000+0 -38094-3 0  9995", "line2": "2 66398  53.1599 282.5967 0001539  91.6792 237.9353 15.39639584  5861"}}, "geometry": {"type": "Point", "coordinates": [-37.7110703598063, 41.52784775100295]}}, {"type": "Feature", "properties": {"norad_id": 66399, "name": "STARLINK-35657", "group": "last-30-days", "lat": 25.104164643391023, "lon": -58.70095952464722, "alt_km": 444.0807035149837, "timestamp": "2025-12-09T05:43:19.507927+00:00", "meta": {"OBJECT_NAME": "STARLINK-35657", "OBJECT_ID": "2025-257V", "EPOCH": "2025-12-08T20:00:01.999008", "MEAN_MOTION": 15.39567136, "ECCENTRICITY": 0.0001247, "INCLINATION": 53.16, "RA_OF_ASC_NODE": 282.6438, "ARG_OF_PERICENTER": 100.7392, "MEAN_ANOMALY": 205.0277, "EPHEMERIS_TYPE": 0, "CLASSIFICATION_TYPE": "U", "NORAD_CAT_ID": 66399, "ELEMENT_SET_NO": 999, "REV_AT_EPOCH": 586, "BSTAR": 0.0017865, "MEAN_MOTION_DOT": 0.00071608, "MEAN_MOTION_DDOT": 0}, "tle": {"line1": "1 66399U 25257V   25342.83335647  .00071608  00000+0  17865-2 0  9999", "line2": "2 66399  53.1600 282.6438 0001247 100.7392 205.0277 15.39567136  5867"}}, "geometry": {"type": "Point", "coordinates": [-58.70095952464722, 25.104164643391023]}}]}